FLOCK 4G-30             
1 62679U 25009BY  26068.70871344  .00013147  00000+0  49475-3 0  9999
2 62679  97.3969 150.6012 0003795 342.4152  17.6955 15.27244548121341
STARLINK-33758          
1 64004U 25101L   26067.83674913  .00044004  00000+0  15990-2 0  9992
2 64004  43.0012   2.8821 0000507 258.3313 101.7481 15.27581192 46928
